IRIDIUM 159             
1 43578U 18061K   24107.47308378  .00000030  00000+0  38186-5 0  9990
2 43578  86.4015  27.5642 0002139  88.8404 271.3037 14.34217897299904
IRIDIUM 180             
1 43922U 19002A   24107.68187884  .00000549  00000+0  18912-3 0  9997
2 43922  86.3961 324.3949 0002147  89.2070 270.9372 14.34217395275585
IRIDIUM 176             
1 43923U 19002B   24107.67504740  .00002164  00000+0  33913-3 0  9994
2 43923  86.6084 324.4244 0002426  88.8112 271.3383 14.72257260282791
IRIDIUM 168             
1 43924U 19002C   24107.60577241  .00000411  00000+0  13952-3 0  9998
2 43924  86.3963 324.4818 0002075  89.9416 270.2017 14.34217589275513
IRIDIUM 173             
1 43925U 19002D   24107.66285739  .00000104  00000+0  30156-4 0  9998
2 43925  86.3957 324.3792 0002066  87.6041 272.5391 14.34218238275518
IRIDIUM 169             
1 43926U 19002E   24107.42936265  .00000719  00000+0  22857-3 0  9990
2 43926  86.4272 356.0805 0004385  79.2960 280.8732 14.38606969276394
IRIDIUM 172             
1 43927U 19002F   24107.65651463  .00000522  00000+0  17942-3 0  9991
2 43927  86.3958 324.3873 0002202  89.4633 270.6815 14.34219750275510
IRIDIUM 175             
1 43928U 19002G   24107.60128014  .00000886  00000+0  13661-3 0  9995
2 43928  86.1466 301.0701 0002233  88.7822 271.3650 14.72245096282776
